     2.100          NAVIGATION                              RINEX VERSION / TYPE
fic2rin                                 09/03/2016 00:19:43 PGM / RUN BY / DATE
                                                            END OF HEADER
 3 16  9  2 23 59 44.0 -.847578048706D-04 -.238742359215D-11  .000000000000D+00
     .130000000000D+02 -.288750000000D+02  .440732643998D-08 -.132634663783D+01
    -.146962702274D-05  .155670102686D-03  .124219805002D-04  .515363825607D+04
     .518384000000D+06  .242143869400D-07 -.287378041891D+01 -.111758708954D-07
     .959913758707D+00  .140312500000D+03 -.608601189768D-01 -.790282918456D-08
     .660741808263D-10  .100000000000D+01  .191200000000D+04  .000000000000D+00
     .240000000000D+01  .000000000000D+00  .139698386192D-08  .130000000000D+02
     .511206000000D+06  .400000000000D+01
 1 16  9  3  0  0  0.0  .325799919665D-04  .136424205266D-11  .000000000000D+00
     .114000000000D+03 -.696562500000D+02  .478377069182D-08 -.782075244459D+00
    -.349991023540D-05  .586296163965D-02  .438280403614D-05  .515370189857D+04
     .518400000000D+06  .143423676491D-06  .236804496196D+01  .502914190292D-07
     .965163542638D+00  .296093750000D+03  .540610977771D+00 -.839820696189D-08
    -.250010413937D-09  .100000000000D+01  .191200000000D+04  .000000000000D+00
     .965000000000D+01  .000000000000D+00  .512227416039D-08  .114000000000D+03
     .511206000000D+06  .400000000000D+01
 5 16  9  3  0  0  0.0 -.937385484576D-04  .261479726760D-11  .000000000000D+00
     .150000000000D+02 -.194687500000D+02  .471269630272D-08  .214063464936D+01
    -.942498445511D-06  .472375913523D-02  .123884528875D-04  .515359823418D+04
     .518400000000D+06 -.145286321640D-06 -.288699944616D+01  .745058059692D-08
     .946953160332D+00  .135031250000D+03  .493264169564D+00 -.800426198107D-08
     .671456540289D-10  .100000000000D+01  .191200000000D+04  .000000000000D+00
     .240000000000D+01  .000000000000D+00 -.107102096081D-07  .150000000000D+02
     .511206000000D+06  .400000000000D+01
 6 16  9  3  0  0  0.0  .241132453084D-03  .511590769747D-11  .000000000000D+00
     .560000000000D+02 -.723125000000D+02  .471912514193D-08 -.473144863491D+00
    -.399351119995D-05  .223870854825D-03  .484287738800D-05  .515375885963D+04
     .518400000000D+06  .745058059692D-08  .235963303671D+01 -.447034835815D-07
     .964969350504D+00  .290093750000D+03 -.139365241629D+01 -.833034699239D-08
    -.250010413937D-09  .100000000000D+01  .191200000000D+04  .000000000000D+00
     .240000000000D+01  .000000000000D+00  .419095158577D-08  .560000000000D+02
     .511206000000D+06  .400000000000D+01
 7 16  9  3  0  0  0.0  .430216081440D-03 -.284217094304D-11  .000000000000D+00
     .430000000000D+02 -.580937500000D+02  .463555023213D-08 -.146866865370D+01
    -.309757888317D-05  .998466962483D-02  .523217022419D-05  .515362591934D+04
     .518400000000D+06  .139698386192D-06 -.756468804774D+00 -.180676579475D-06
     .965138624755D+00  .280812500000D+03 -.263775245529D+01 -.813783897366D-08
    -.440018328530D-09  .100000000000D+01  .191200000000D+04  .000000000000D+00
     .240000000000D+01  .000000000000D+00 -.111758708954D-07  .430000000000D+02
     .511206000000D+06  .400000000000D+01
 8 16  9  3  0  0  0.0 -.303396955132D-04 -.147792889038D-11  .000000000000D+00
     .101000000000D+03  .763125000000D+02  .453233164695D-08  .215712022492D+01
     .396370887756D-05  .170498527586D-02  .564381480217D-05  .515374114418D+04
     .518400000000D+06  .223517417908D-07  .130629109304D+01 -.186264514923D-07
     .963952931115D+00  .271343750000D+03 -.102651018867D+01 -.820891336276D-08
     .472162524607D-09  .100000000000D+01  .191200000000D+04  .000000000000D+00
     .340000000000D+01  .000000000000D+00  .512227416039D-08  .101000000000D+03
     .511206000000D+06  .400000000000D+01
 9 16  9  3  0  0  0.0  .198888126761D-03  .738964445191D-11  .000000000000D+00
     .390000000000D+02  .655000000000D+02  .494556314541D-08  .127191277712D+01
     .328943133354D-05  .507924822159D-03  .629387795925D-05  .515379180717D+04
     .518400000000D+06 -.540167093277D-07 -.183534785898D+01 -.242143869400D-07
     .954304430473D+00  .252375000000D+03  .207012478773D+01 -.830427447779D-08
     .352157525917D-09  .100000000000D+01  .191200000000D+04  .000000000000D+00
     .240000000000D+01  .000000000000D+00  .139698386192D-08  .390000000000D+02
     .511206000000D+06  .400000000000D+01
10 16  9  3  0  0  0.0 -.924803316593D-04 -.522959453519D-11  .000000000000D+00
     .890000000000D+02 -.204375000000D+02  .434803825610D-08 -.297596500537D+01
    -.100024044514D-05  .169220683165D-02  .130888074636D-04  .515368840981D+04
     .518400000000D+06 -.242143869400D-07 -.287770213216D+01 -.484287738800D-07
     .960134972401D+00  .128468750000D+03 -.281893005372D+01 -.783068332225D-08
     .489306095849D-10  .100000000000D+01  .191200000000D+04  .000000000000D+00
     .240000000000D+01  .000000000000D+00  .232830643654D-08  .890000000000D+02
     .511206000000D+06  .400000000000D+01
11 16  9  3  0  0  0.0 -.662445556372D-03 -.238742359215D-11  .000000000000D+00
     .380000000000D+02 -.108437500000D+02  .645955478067D-08 -.136088549878D+01
    -.763684511185D-07  .168019586708D-01  .204704701900D-05  .515366971588D+04
     .518400000000D+06 -.931322574615D-07  .198401626802D+01  .432133674622D-06
     .897497494270D+00  .307500000000D+03  .156632220544D+01 -.933217443681D-08
     .357157734196D-10  .100000000000D+01  .191200000000D+04  .000000000000D+00
     .240000000000D+01  .000000000000D+00 -.121071934700D-07  .380000000000D+02
     .511206000000D+06  .400000000000D+01
12 16  9  3  0  0  0.0  .388295855373D-03  .341060513165D-12  .000000000000D+00
     .720000000000D+02  .259062500000D+02  .343657171843D-08 -.206958878917D+01
     .138767063618D-05  .604564324021D-02  .124219805002D-04  .515367127419D+04
     .518400000000D+06 -.372529029846D-08  .321264660225D+00 -.102445483208D-06
     .990502287333D+00  .157031250000D+03  .788321364841D+00 -.734709175015D-08
    -.214294640518D-10  .100000000000D+01  .191200000000D+04  .000000000000D+00
     .340000000000D+01  .000000000000D+00 -.125728547573D-07  .720000000000D+02
     .511206000000D+06  .400000000000D+01
13 16  9  3  0  0  0.0 -.414163805544D-04 -.227373675443D-11  .000000000000D+00
     .400000000000D+01  .563750000000D+02  .479448542385D-08 -.498602740920D+00
     .305846333504D-05  .402894325089D-02  .498257577419D-05  .515368249893D+04
     .518400000000D+06  .353902578354D-07 -.171306904818D+01 -.745058059692D-08
     .970529871402D+00  .286781250000D+03  .196794272334D+01 -.838320633705D-08
     .300012496725D-09  .100000000000D+01  .191200000000D+04  .000000000000D+00
     .240000000000D+01  .000000000000D+00 -.111758708954D-07  .400000000000D+01
     .511206000000D+06  .400000000000D+01
14 16  9  3  0  0  0.0 -.330843031406D-04 -.193267624127D-11  .000000000000D+00
     .520000000000D+02  .586875000000D+02  .494127725260D-08  .905102640678D+00
     .310130417347D-05  .894326716661D-02  .583380460739D-05  .515404994011D+04
     .518400000000D+06 -.949949026108D-07 -.175076533692D+01  .558793544769D-07
     .963047883679D+00  .271125000000D+03 -.195259755533D+01 -.849392523465D-08
     .303226916332D-09  .100000000000D+01  .191200000000D+04  .000000000000D+00
     .240000000000D+01  .000000000000D+00 -.931322574615D-08  .520000000000D+02
     .511206000000D+06  .400000000000D+01
15 16  9  3  0  0  0.0 -.325837172568D-03 -.147792889038D-11  .000000000000D+00
     .730000000000D+02  .724062500000D+02  .564809240858D-08  .589246312520D+00
     .398047268391D-05  .839368137531D-02  .564940273762D-05  .515365629959D+04
     .518400000000D+06  .242143869400D-07 -.189037677917D+01  .126659870148D-06
     .930045376374D+00  .250625000000D+03  .495271119082D+00 -.878572310349D-08
     .284654714154D-09  .100000000000D+01  .191200000000D+04  .000000000000D+00
     .340000000000D+01  .000000000000D+00 -.107102096081D-07  .730000000000D+02
     .511206000000D+06  .400000000000D+01
16 16  9  3  0  0  0.0  .439677387476D-05  .193267624127D-11  .000000000000D+00
     .770000000000D+02  .128125000000D+02  .342549982867D-08  .223244344253D+01
     .640749931335D-06  .866849534214D-02  .131856650114D-04  .515356483078D+04
     .518400000000D+06 -.124797224998D-06  .340055019331D+00 -.931322574615D-08
     .990996196272D+00  .143093750000D+03  .387738446451D+00 -.746531096017D-08
    -.921466954226D-10  .100000000000D+01  .191200000000D+04  .000000000000D+00
     .240000000000D+01  .000000000000D+00 -.107102096081D-07  .770000000000D+02
     .511206000000D+06  .400000000000D+01
17 16  9  3  0  0  0.0 -.202857423574D-03  .454747350886D-12  .000000000000D+00
     .870000000000D+02  .679687500000D+02  .430946522081D-08  .132991318822D+01
     .349618494511D-05  .111261919374D-01  .515766441822D-05  .515373921394D+04
     .518400000000D+06 -.279396772385D-06  .136024840527D+01 -.670552253723D-07
     .977078918230D+00  .286687500000D+03 -.192438209049D+01 -.827070165078D-08
     .428232123301D-09  .100000000000D+01  .191200000000D+04  .000000000000D+00
     .340000000000D+01  .000000000000D+00 -.107102096081D-07  .870000000000D+02
     .511206000000D+06  .400000000000D+01
18 16  9  3  0  0  0.0  .553772319108D-03  .386535248253D-11  .000000000000D+00
     .540000000000D+02 -.235625000000D+02  .496556397853D-08  .289372567723D+01
    -.129640102386D-05  .172508442774D-01  .127200037241D-04  .515372396469D+04
     .518400000000D+06  .176951289177D-06 -.291022489304D+01 -.232830643654D-06
     .925637961154D+00  .110468750000D+03 -.186152842086D+01 -.792354433314D-08
    -.435732435719D-10  .100000000000D+01  .191200000000D+04  .000000000000D+00
     .240000000000D+01  .000000000000D+00 -.111758708954D-07  .540000000000D+02
     .511206000000D+06  .400000000000D+01
